EYESAT-1 (AO-27)        
1 22825U 93061C   18009.53226442  .00000004  00000-0  19323-4 0  9990
2 22825  98.8421 342.9546 0009479  89.3308 270.8960 14.30018737266624
CUTE-1 (CO-55)          
1 27844U 03031E   18009.58210777  .00000057  00000-0  45586-4 0  9991
2 27844  98.6886  20.5687 0010779 108.8961 251.3386 14.22087624753613
CUBESAT XI-IV (CO-57)   
1 27848U 03031J   18009.56785428  .00000034  00000-0  35326-4 0  9999
2 27848  98.6975  20.8967 0010620 117.9339 242.2915 14.21695243753499
CUBESAT XI 5            
1 28895U 05043F   18009.38621900  .00000143  00000-0  36203-4 0  9997
2 28895  97.8855 167.4915 0016276 207.5200 152.5143 14.63495933650411
CUTE-1.7+APD II (CO-65) 
1 32785U 08021C   18009.55826477  .00000224  00000-0  29985-4 0  9993
2 32785  97.5541  29.2613 0012610 198.2736 161.8030 14.88042855525586
COMPASS-1               
1 32787U 08021E   18010.14678799  .00000582  00000-0  61249-4 0  9990
2 32787  97.5410  39.9205 0013058 161.1147 199.0560 14.92879176526378
AAUSAT-II               
1 32788U 08021F   18009.58431783  .00000411  00000-0  43403-4 0  9990
2 32788  97.5384  42.5722 0012574 153.7753 206.4107 14.94183451526393
DELFI-C3 (DO-64)        
1 32789U 08021G   18009.29949467  .00001661  00000-0  11901-3 0  9997
2 32789  97.5347  67.9902 0013931 118.2188 242.0447 15.05662329527775
CANX-2                  
1 32790U 08021H   18009.57691771  .00000190  00000-0  26437-4 0  9999
2 32790  97.5536  27.5296 0013218 200.5735 159.4952 14.87753824525440
SEEDS II (CO-66)        
1 32791U 08021J   18010.10523955  .00000239  00000-0  29943-4 0  9998
2 32791  97.5472  34.7535 0013459 178.5917 181.5342 14.90441057525961
SWISSCUBE               
1 35932U 09051B   18009.97947555  .00000131  00000-0  40638-4 0  9996
2 35932  98.5214 157.5586 0007137 343.9251  16.1719 14.56109059440413
BEESAT                  
1 35933U 09051C   18009.39987287  .00000115  00000-0  36885-4 0  9990
2 35933  98.5252 158.4111 0005683   2.3585 357.7637 14.56217980440359
ITUPSAT 1               
1 35935U 09051E   18009.36525165  .00000099  00000-0  33915-4 0  9994
2 35935  98.5364 158.6302 0007851 353.5059   6.6034 14.55401363440221
TISAT 1                 
1 36799U 10035E   18009.84242782  .00000479  00000-0  54900-4 0  9990
2 36799  98.0841 142.1113 0012500  14.6533 345.5044 14.90663419406568
M-CUBED & EXP-1 PRIME   
1 37855U 11061F   18009.89731342  .00001139  00000-0  66555-4 0  9997
2 37855 101.7212 351.4470 0177902 190.5035 169.2439 15.03969712337850
HORYU 2                 
1 38340U 12025D   18009.59466725  .00000201  00000-0  37675-4 0  9995
2 38340  98.3750  25.7979 0011550   1.8606 358.2643 14.75480853293318
STRAND-1                
1 39090U 13009E   18009.55382189  .00000033  00000-0  26842-4 0  9995
2 39090  98.5339 217.8570 0010091  52.3829 307.8270 14.35006008255073
BRITE-AUSTRIA           
1 39091U 13009F   18009.62968856  .00000005  00000-0  16982-4 0  9998
2 39091  98.5304 217.2551 0011468  58.8233 301.4075 14.35056065255103
UNIBRITE                
1 39092U 13009G   18010.13520834  .00000003  00000-0  16510-4 0  9992
2 39092  98.5316 217.4276 0010271  51.8843 308.3267 14.34930563255151
AIST-2                  
1 39133U 13015D   18010.17965260  .00000091  00000-0  19055-4 0  9999
2 39133  64.8739 351.3139 0034733 247.4510 112.2933 15.04467745259433
SOMP                    
1 39134U 13015E   18010.11856111  .00001052  00000-0  59717-4 0  9995
2 39134  64.8637 278.0539 0029445 230.9785 128.8720 15.18703598260898
BEESAT-3                
1 39135U 13015F   18009.88569978  .00000841  00000-0  52961-4 0  9999
2 39135  64.8700 290.1428 0030567 255.5010 104.2724 15.16307544260647
BEESAT-2                
1 39136U 13015G   18009.27283839  .00000684  00000-0  45609-4 0  9998
2 39136  64.8704 294.4816 0031388 253.6722 106.0951 15.15791020260503
NEE-01 PEGASUS          
1 39151U 13018B   18010.21895464  .00000145  00000-0  26289-4 0  9992
2 39151  97.9792 105.4108 0018487  99.9531 260.3768 14.79838738254154
CUBEBUG-1 (CAPITAN BETO)
1 39153U 13018D   18010.21075190  .00000199  00000-0  33048-4 0  9990
2 39153  97.9822 106.3971 0018389  98.0212 262.3087 14.80322253254221
ESTCUBE 1               
1 39161U 13021C   18010.19202241  .00000154  00000-0  32407-4 0  9998
2 39161  98.0188  98.4084 0008970 195.2422 164.8554 14.72007269251209
POPACS 1                
1 39268U 13055D   18009.41893492  .00002937  00000-0  83789-4 0  9990
2 39268  81.0029 152.6561 0642494 333.9543  23.0563 14.32954094221707
POPACS 2                
1 39269U 13055E   18009.77898309  .00002011  00000-0  57848-4 0  9992
2 39269  81.0147 171.0406 0695459  21.6899 341.2246 14.21333256220639
POPACS 3                
1 39270U 13055F   18009.79012316  .00001927  00000-0  59142-4 0  9996
2 39270  81.0162 181.3962 0722169  52.6392 313.8345 14.14160293219960
ZACUBE-1 (TSHEPISOSAT)  
1 39417U 13066B   18009.86747373  .00000206  00000-0  32656-4 0  9997
2 39417  97.6058  46.8090 0058064 314.6503  44.9984 14.80856816223364
WNISAT-1                
1 39423U 13066H   18010.22573279  .00000049  00000-0  18935-4 0  9997
2 39423  97.7069 346.7136 0175926 150.4783 210.6497 14.52912462219297
TRITON-1                
1 39427U 13066M   18010.05876547  .00000228  00000-0  44264-4 0  9999
2 39427  97.6366  16.5284 0115213  46.5306 314.5412 14.67594776221389
GOMX 1                  
1 39430U 13066Q   18010.02318593  .00000240  00000-0  51942-4 0  9997
2 39430  97.6806 358.4590 0152984 109.6873 252.0907 14.59002516220095
BRITE-PL                
1 39431U 13066R   18009.47884405 -.00000026  00000-0  47180-5 0  9998
2 39431  97.7360 334.2479 0202083 196.9548 162.4827 14.46900901218086
HUMSAT-D                
1 39433U 13066T   18009.74259500  .00000229  00000-0  28113-4 0  9990
2 39433  97.6273  71.4887 0029722 248.9357 110.8683 14.91713500224807
EAGLE 2                 
1 39436U 13066W   18009.83914097  .00055849  00000-0  83217-3 0  9995
2 39436  97.7112 133.2594 0005427  49.6588 310.5138 15.54914949228542
CUBEBUG-2 (LO-74)       
1 39440U 13066AA  18009.87470191  .00000224  00000-0  38439-4 0  9990
2 39440  97.6116  34.4405 0080293 350.6561   9.3151 14.75594437222576
NEE-02 KRYSAOR          
1 39441U 13066AB  18010.00132706  .00000151  00000-0  28754-4 0  9993
2 39441  97.6106  32.9685 0081845 354.6595   5.3734 14.74721741222464
FUNCUBE-1 (AO-73)       
1 39444U 13066AE  18009.60790810  .00000248  00000-0  37334-4 0  9997
2 39444  97.6073  47.8848 0057192 311.4166  48.2140 14.81618610221586
UWE-3                   
1 39446U 13066AG  18009.55924973  .00000214  00000-0  35317-4 0  9994
2 39446  97.6076  39.9829 0069590 334.1067  25.6667 14.78127321221098
BRITE-TORONTO           
1 40020U 14033L   18010.05885265  .00000058  00000-0  18332-4 0  9990
2 40020  97.8061 236.1957 0088283  29.4065 331.2065 14.66459506190418
DUCHIFAT-1              
1 40021U 14033M   18009.59733940  .00000414  00000-0  48588-4 0  9992
2 40021  97.9175 288.0313 0012805 347.5790  12.5109 14.90164371193336
FLOCK 1C-10             
1 40023U 14033P   18009.31618973  .00000501  00000-0  59148-4 0  9993
2 40023  97.9186 286.5581 0013068 354.8096   5.2967 14.89085312193170
NANOSATC-BR1            
1 40024U 14033Q   18009.22513118  .00000352  00000-0  42924-4 0  9997
2 40024  97.9122 286.2019 0012144 351.1358   8.9643 14.89448574192699
QB50P1                  
1 40025U 14033R   18010.19108058  .00000256  00000-0  33546-4 0  9992
2 40025  97.9091 285.8839 0012330 351.3964   8.7039 14.88613406193282
FLOCK 1C-7              
1 40026U 14033S   18009.36537121  .00000051  00000-0  11309-4 0  9993
2 40026  97.9226 287.6138 0011448 352.2984   7.8049 14.89825832193242
FLOCK 1C-1              
1 40027U 14033T   18009.54439826  .00000596  00000-0  69028-4 0  9992
2 40027  97.9212 287.0754 0013336 351.3587   8.7343 14.89148261193222
POPSAT-HIP-1            
1 40028U 14033U   18010.17409377  .00000047  00000-0  11114-4 0  9996
2 40028  97.9123 286.2040 0014010 349.7805  10.3122 14.88472146193266
FLOCK 1C-2              
1 40029U 14033V   18010.17488943  .00000493  00000-0  58078-4 0  9998
2 40029  97.9191 287.5448 0014273 345.7686  14.3137 14.89196927193308
FLOCK 1C-4              
1 40031U 14033X   18009.54108840  .00000817  00000-0  92766-4 0  9997
2 40031  97.9189 286.8531 0014685 346.1009  13.9759 14.89016797193192
QB50P2                  
1 40032U 14033Y   18009.82983083  .00000268  00000-0  35121-4 0  9991
2 40032  97.9054 284.4169 0011659 348.1875  11.9066 14.88163291193174
FLOCK 1C-11             
1 40033U 14033Z   18010.06881291  .00000885  00000-0  96621-4 0  9995
2 40033  97.9283 289.3037 0012169 337.9120  22.1574 14.90410580193406
ANTELSAT                
1 40034U 14033AA  18009.61539613  .00000228  00000-0  41641-4 0  9996
2 40034  97.8325 251.8266 0058821 350.0700   9.9342 14.73843668190799
FLOCK 1C-9              
1 40035U 14033AB  18009.55191553  .00000267  00000-0  34276-4 0  9996
2 40035  97.9230 287.3798 0011994 340.9172  19.1560 14.89221075193215
FLOCK 1C-6              
1 40036U 14033AC  18009.35670115  .00000184  00000-0  25415-4 0  9994
2 40036  97.9237 287.4529 0012364 343.1714  16.9080 14.89326124193207
PERSEUS-M2              
1 40037U 14033AD  18009.47452587  .00000102  00000-0  17857-4 0  9990
2 40037  97.9058 282.0736 0014307 355.6290   4.4798 14.86312698192953
FLOCK 1C-5              
1 40038U 14033AE  18009.23260050  .00000289  00000-0  36516-4 0  9996
2 40038  97.9224 287.0894 0014617 341.3883  18.6817 14.89295778193180
PERSEUS-M1              
1 40039U 14033AF  18009.72852419  .00000113  00000-0  19208-4 0  9992
2 40039  97.9061 281.7809 0014052 351.1893   8.9073 14.85935090192943
FLOCK 1C-8              
1 40040U 14033AG  18009.82587929 -.00000091  00000-0 -32553-5 0  9992
2 40040  97.9283 290.5176 0012562 325.9125  34.1319 14.91254998193423
